STARLINK-5313           
1 55313U 23010AW  25289.50281139  .00000755  00000+0  71091-4 0  9996
2 55313  70.0007   8.0381 0003049 268.4438  91.6371 14.98322125153041
STARLINK-5305           
1 55314U 23010AX  25289.50697686  .00000242  00000+0  28038-4 0  9999
2 55314  70.0003   8.0514 0003143 270.4257  89.6542 14.98339079153046
STARLINK-4623           
1 55315U 23010AY  25289.45296308  .00001225  00000+0  11043-3 0  9999
2 55315  70.0029  28.1395 0002507 269.1346  90.9526 14.98334430151650
STARLINK-5257           
1 55316U 23010AZ  25289.47776039  .00000879  00000+0  81485-4 0  9998
2 55316  70.0007   7.9657 0003234 270.3615  89.7174 14.98331205153041
STARLINK-5265           
1 55317U 23010BA  25289.49863260  .00000745  00000+0  70226-4 0  9997
2 55317  70.0004   8.0505 0003030 270.3767  89.7045 14.98330076153047
STARLINK-5180           
1 55318U 23010BB  25289.49445963  .00001083  00000+0  98523-4 0  9990
2 55318  70.0004   8.0076 0003145 267.4206  92.6593 14.98325763153041
STARLINK-5196           
1 55319U 23010BC  25289.49028633  .00000724  00000+0  68443-4 0  9991
2 55319  70.0004   7.9938 0003115 271.5934  88.4869 14.98327899153049
HAWK-6B                 
1 55324U 23011A   25288.81115520  .00007475  00000+0  35168-3 0  9992
2 55324  40.5170 334.0896 0001587 181.6272 178.4531 15.19671521150619
HAWK-6C                 
1 55326U 23011C   25289.13914247  .00004831  00000+0  23046-3 0  9998
2 55326  40.4866 329.4431 0001124 202.5940 157.4819 15.19666863150672
HAWK-6A                 
1 55327U 23011D   25289.13917798  .00007791  00000+0  36609-3 0  9990
2 55327  40.5014 330.8525 0001117 212.1175 147.9565 15.19675057150675
STARLINK-5492           
1 55331U 23013A   25288.62805488  .00000074  00000+0  20552-4 0  9990
2 55331  43.0048   8.9652 0001251 266.0766  93.9934 15.02532518150960
STARLINK-5491           
1 55332U 23013B   25290.20490950  .00000765  00000+0  71688-4 0  9995
2 55332  43.0038 347.1362 0000961 263.9712  96.1020 15.02535178150270
STARLINK-5493           
1 55333U 23013C   25289.48671870  .00000132  00000+0  24831-4 0  9992
2 55333  43.0062   4.2265 0001507 273.4887  86.5783 15.02527924150018
STARLINK-5652           
1 55334U 23013D   25289.48891935  .00000173  00000+0  27878-4 0  9998
2 55334  43.0046   4.1443 0001095 261.9042  98.1676 15.02537606150013
STARLINK-5660           
1 55335U 23013E   25289.48338269  .00002397  00000+0  19246-3 0  9994
2 55335  43.0055   4.2006 0001373 273.3275  86.7410 15.02528835150017
STARLINK-5655           
1 55336U 23013F   25289.48362882  .00000655  00000+0  63580-4 0  9999
2 55336  43.0030 351.0998 0001025 264.8235  95.2491 15.02535211150165
STARLINK-5667           
1 55337U 23013G   25290.19491528  .00000124  00000+0  24288-4 0  9993
2 55337  43.0055 347.0276 0001288 266.9392  93.1303 15.02534928150270
STARLINK-5658           
1 55338U 23013H   25289.48115788  .00001436  00000+0  12137-3 0  9991
2 55338  43.0047   4.1829 0001506 270.0098  90.0572 15.02540324150012
STARLINK-5671           
1 55339U 23013J   25290.20687028 -.00000103  00000+0  74615-5 0  9997
2 55339  43.0039   0.1672 0001123 282.3422  77.7294 15.02534921150129
STARLINK-5675           
1 55340U 23013K   25289.19749043  .00000721  00000+0  68463-4 0  9999
2 55340  43.0034   5.4991 0001016 260.9453  99.1275 15.02540278149975
STARLINK-5670           
1 55341U 23013L   25290.20909809 -.00000366  00000+0 -12041-4 0  9990
2 55341  43.0056   0.1854 0001407 270.1850  89.8831 15.02531027150123
STARLINK-5657           
1 55342U 23013M   25290.20354128  .00000546  00000+0  55523-4 0  9999
2 55342  43.0047   0.1418 0001251 261.0790  98.9911 15.02537015150122
STARLINK-5661           
1 55343U 23013N   25290.19799556 -.00000755  00000+0 -40809-4 0  9991
2 55343  43.0066   0.1009 0001052 261.5082  98.5642 15.02534883150125
STARLINK-5653           
1 55345U 23013Q   25290.19824935  .00000174  00000+0  27929-4 0  9994
2 55345  43.0033 347.0793 0001137 272.5960  87.4752 15.02532895150271
STARLINK-5631           
1 55346U 23013R   25290.19577314 -.00000358  00000+0 -11432-4 0  9999
2 55346  43.0043   0.0824 0001164 272.2637  87.8072 15.02532982150122
STARLINK-5663           
1 55347U 23013S   25289.51879978  .00012046  00000+0  90653-3 0  9991
2 55347  43.0069   3.6032 0000646 250.7062 109.3711 15.02482568150021
STARLINK-5609           
1 55348U 23013T   25289.19527356  .00001242  00000+0  10699-3 0  9994
2 55348  43.0045   5.4770 0001214 272.2530  87.8174 15.02536323149970
STARLINK-5666           
1 55349U 23013U   25289.52435337 -.00003100  00000+0 -21459-3 0  9992
2 55349  43.0049   3.6463 0001995 288.9650  71.0976 15.02517898150026
STARLINK-5668           
1 55350U 23013V   25289.52100666  .00000068  00000+0  20081-4 0  9997
2 55350  43.0049   3.6219 0001183 275.9246  84.1461 15.02532096150024
STARLINK-5659           
1 55351U 23013W   25289.50990661  .00000896  00000+0  81374-4 0  9999
2 55351  43.0045   3.5355 0001171 271.8674  88.2035 15.02532364150028
STARLINK-5547           
1 55352U 23013X   25289.51546150 -.00000729  00000+0 -38913-4 0  9999
2 55352  43.0068   3.5814 0001256 278.0201  82.0499 15.02528759150022
STARLINK-5608           
1 55353U 23013Y   25289.49560096 -.00008780  00000+0 -63860-3 0  9995
2 55353  43.0070   3.4278 0000242 327.6427  32.4401 15.02367671150020
STARLINK-5649           
1 55354U 23013Z   25289.51323779  .00000274  00000+0  35384-4 0  9993
2 55354  43.0064   3.5639 0001153 264.1421  95.9290 15.02533972150026
STARLINK-5647           
1 55355U 23013AA  25289.50324617  .00001286  00000+0  11028-3 0  9997
2 55355  43.0041   3.4742 0001029 275.4886  84.5839 15.02528878150019
STARLINK-5651           
1 55357U 23013AC  25289.50435559 -.00000297  00000+0 -68867-5 0  9995
2 55357  43.0047   3.4935 0001213 261.9171  98.1533 15.02539780150020
STARLINK-5622           
1 55358U 23013AD  25289.50657948 -.00002141  00000+0 -14352-3 0  9992
2 55358  43.0050   3.5120 0001287 266.1310  93.9385 15.02520311150023
STARLINK-5641           
1 55359U 23013AE  25289.50102653 -.00001435  00000+0 -91143-4 0  9990
2 55359  43.0054   3.4696 0001362 269.8243  90.2443 15.02539327150026
STARLINK-5664           
1 55360U 23013AF  25289.55059377  .00000303  00000+0  37474-4 0  9999
2 55360  43.0055  15.9740 0001410 277.1319  82.9363 15.02534930149883
STARLINK-5665           
1 55361U 23013AG  25289.44590912  .00000421  00000+0  46271-4 0  9999
2 55361  43.0062 350.9132 0001137 263.1010  96.9703 15.02531923150163
STARLINK-5574           
1 55362U 23013AH  25290.18826455 -.00000176  00000+0  20382-5 0  9991
2 55362  43.0059 347.0185 0001437 268.2449  91.8229 15.02533485150274
STARLINK-5627           
1 55364U 23013AK  25289.23290145  .00000305  00000+0  37675-4 0  9993
2 55364  43.0054   4.8980 0002023 305.0029  55.0623 15.02533769149989
STARLINK-5639           
1 55365U 23013AL  25289.52407222  .00000553  00000+0  55969-4 0  9993
2 55365  43.0039  16.6350 0000868 278.2954  81.7790 15.02538027149879
STARLINK-5654           
1 55366U 23013AM  25290.19158580  .00000469  00000+0  49789-4 0  9998
2 55366  43.0041 347.0398 0001083 269.5270  90.5448 15.02538395150272
STARLINK-5635           
1 55367U 23013AN  25290.20823719  .00000556  00000+0  56197-4 0  9992
2 55367  43.0045 347.1608 0001290 268.5998  91.4697 15.02538467150274
STARLINK-5625           
1 55368U 23013AP  25289.44701794  .00000081  00000+0  21102-4 0  9996
2 55368  43.0065 350.9191 0001235 266.1030  93.9671 15.02532271150160
STARLINK-5644           
1 55369U 23013AQ  25289.52296156  .00002540  00000+0  20301-3 0  9998
2 55369  43.0052  16.6263 0001157 266.4701  93.6009 15.02545309149878
STARLINK-5027           
1 55370U 23013AR  25289.52740921  .00000009  00000+0  15724-4 0  9996
2 55370  43.0062  16.6635 0001387 270.3792  89.6892 15.02532899149878
STARLINK-5590           
1 55371U 23013AS  25289.51297843  .00000167  00000+0  27406-4 0  9991
2 55371  43.0039  16.5464 0001070 271.2043  88.8677 15.02529731150796
STARLINK-5568           
1 55372U 23013AT  25289.51963779  .00000667  00000+0  64422-4 0  9994
2 55372  43.0032  16.6014 0001078 269.8587  90.2132 15.02530132149873
STARLINK-5581           
1 55373U 23013AU  25290.20550573  .00000740  00000+0  69822-4 0  9998
2 55373  43.0058  13.1417 0001196 269.0365  91.0340 15.02533505149976
STARLINK-5578           
1 55374U 23013AV  25289.51635068  .00029661  00000+0  22089-2 0  9999
2 55374  43.0031  16.5760 0001839 253.1323 106.9317 15.02408907149874
STARLINK-5588           
1 55375U 23013AW  25289.50631823  .00000502  00000+0  52268-4 0  9991
2 55375  43.0039  16.5011 0001211 272.0983  87.9721 15.02527201149874
STARLINK-5586           
1 55376U 23013AX  25289.48031007  .00001117  00000+0  97751-4 0  9996
2 55376  43.0029 351.1584 0001268 272.4228  87.6469 15.02530653150160
STARLINK-5567           
1 55377U 23013AY  25288.96117058  .00001062  00000+0  93674-4 0  9999
2 55377  43.0052  19.2919 0001262 263.8611  96.2087 15.02536792149794
STARLINK-5572           
1 55378U 23013AZ  25289.50964870  .00001532  00000+0  12846-3 0  9996
2 55378  43.0047  16.5279 0001359 257.5278 102.5413 15.02533602149874
STARLINK-5569           
1 55379U 23013BA  25289.23374382  .00000415  00000+0  45817-4 0  9994
2 55379  43.0074  17.8963 0001166 268.5057  91.5652 15.02535914149838
STARLINK-5571           
1 55380U 23013BB  25289.44367992  .00000470  00000+0  49877-4 0  9999
2 55380  43.0047 350.8938 0001071 276.5459  83.5262 15.02535706150167
STARLINK-5575           
1 55381U 23013BC  25288.96450242  .00000533  00000+0  54526-4 0  9994
2 55381  43.0051  19.3131 0000998 275.5260  84.5468 15.02535327149796
STARLINK-5576           
1 55382U 23013BD  25288.97115888  .00000425  00000+0  46510-4 0  9994
2 55382  43.0053  19.3672 0001506 268.9309  91.1361 15.02540007149792
